SL-16 R/B               
1 31793U 07029B   26098.47955096 -.00000210  00000+0 -84094-4 0  9994
2 31793  70.9733 109.7646 0002911 275.0765 194.9797 14.14843161969588
KORONAS-FOTON           
1 33504U 09003A   26098.45206165  .00013026  00000+0  28234-3 0  9994
2 33504  82.4295 244.9126 0011247  52.4252 307.8015 15.44205652950338
CZ-2C R/B               
1 37731U 11030B   26098.62557767  .00001192  00000+0  15627-3 0  9992
2 37731  97.8592  55.3020 0050995 252.5532 281.5475 14.81328276794521
H-2A R/B                
1 38341U 12025E   26098.64096268  .00002105  00000+0  19339-3 0  9990
2 38341  98.4771  68.0998 0043608 213.4083 146.4383 14.95376160752699
SHIJIAN-16 (SJ-16)      
1 39358U 13057A   26098.59423539  .00001090  00000+0  10895-3 0  9994
2 39358  74.9705 128.4742 0015445  35.1597 325.0607 14.92451263675962
SL-4 R/B                
1 39679U 14021B   26098.54967833  .00013542  00000+0  29182-3 0  9991
2 39679  51.6057 191.4902 0093860 211.9999 147.5265 15.40310982660872
ALOS-2                  
1 39766U 14029A   26097.53042397  .00000055  00000+0  14196-4 0  9998
2 39766  97.9196 195.7083 0001762  93.2091 266.9322 14.79459327641133
YAOGAN-29               
1 41038U 15069A   26098.61683404  .00000172  00000+0  27791-4 0  9993
2 41038  98.0098 127.1209 0000369 174.7245 185.3972 14.83028781560314
ASTRO-H (HITOMI)        
1 41337U 16012A   26098.57664484  .00002383  00000+0  13650-3 0  9990
2 41337  30.9983 163.6499 0009680 271.9943  87.9586 15.10202973556759
HXMT (HUIYAN)           
1 42758U 17034A   26098.65740157  .00005185  00000+0  25998-3 0  9995
2 42758  43.0138 210.0141 0030424  63.0707 297.3244 15.17876787487098
SAOCOM 1A               
1 43641U 18076A   26098.60014935  .00000458  00000+0  64078-4 0  9998
2 43641  97.8904 286.3503 0001399  79.7744 280.3627 14.82196036405797
H-2A R/B                
1 43682U 18084L   26098.58287075  .00017460  00000+0  39851-3 0  9997
2 43682  98.8684 322.3852 0023145 279.5146  80.3481 15.42701989410388
SAOCOM 1B               
1 46265U 20059A   26098.63142353  .00000485  00000+0  67458-4 0  9991
2 46265  97.8892 285.4773 0001470  84.8482 275.2899 14.82156371303185
CSS (TIANHE)            
1 48274U 21035A   26098.52132162  .00023778  00000+0  26635-3 0  9994
2 48274  41.4683  26.4426 0004214 161.2756 198.8239 15.62120796282276
