[
  {
    "OBJECT_NAME": "SL-16 R/B",
    "OBJECT_ID": "2007-029B",
    "EPOCH": "2026-04-08T11:30:33.202944",
    "MEAN_MOTION": 14.14843161,
    "ECCENTRICITY": 0.00029116,
    "INCLINATION": 70.9733,
    "RA_OF_ASC_NODE": 109.7646,
    "ARG_OF_PERICENTER": 275.0765,
    "MEAN_ANOMALY": 194.9797,
    "EPHEMERIS_TYPE": 0,
    "CLASSIFICATION_TYPE": "U",
    "NORAD_CAT_ID": 31793,
    "ELEMENT_SET_NO": 999,
    "REV_AT_EPOCH": 96958,
    "BSTAR": -8.4094228e-5,
    "MEAN_MOTION_DOT": -2.1e-6,
    "MEAN_MOTION_DDOT": 0
  },
  {
    "OBJECT_NAME": "KORONAS-FOTON",
    "OBJECT_ID": "2009-003A",
    "EPOCH": "2026-04-08T10:50:58.126560",
    "MEAN_MOTION": 15.44205652,
    "ECCENTRICITY": 0.00112471,
    "INCLINATION": 82.4295,
    "RA_OF_ASC_NODE": 244.9126,
    "ARG_OF_PERICENTER": 52.4252,
    "MEAN_ANOMALY": 307.8015,
    "EPHEMERIS_TYPE": 0,
    "CLASSIFICATION_TYPE": "U",
    "NORAD_CAT_ID": 33504,
    "ELEMENT_SET_NO": 999,
    "REV_AT_EPOCH": 95033,
    "BSTAR": 0.00028234377,
    "MEAN_MOTION_DOT": 0.00013026,
    "MEAN_MOTION_DDOT": 0
  },
  {
    "OBJECT_NAME": "CZ-2C R/B",
    "OBJECT_ID": "2011-030B",
    "EPOCH": "2026-04-08T15:00:49.910688",
    "MEAN_MOTION": 14.81328276,
    "ECCENTRICITY": 0.00509956,
    "INCLINATION": 97.8592,
    "RA_OF_ASC_NODE": 55.302,
    "ARG_OF_PERICENTER": 252.5532,
    "MEAN_ANOMALY": 281.5475,
    "EPHEMERIS_TYPE": 0,
    "CLASSIFICATION_TYPE": "U",
    "NORAD_CAT_ID": 37731,
    "ELEMENT_SET_NO": 999,
    "REV_AT_EPOCH": 79452,
    "BSTAR": 0.00015626877,
    "MEAN_MOTION_DOT": 1.192e-5,
    "MEAN_MOTION_DDOT": 0
  },
  {
    "OBJECT_NAME": "H-2A R/B",
    "OBJECT_ID": "2012-025E",
    "EPOCH": "2026-04-08T15:22:59.175552",
    "MEAN_MOTION": 14.9537616,
    "ECCENTRICITY": 0.0043608,
    "INCLINATION": 98.4771,
    "RA_OF_ASC_NODE": 68.0998,
    "ARG_OF_PERICENTER": 213.4083,
    "MEAN_ANOMALY": 146.4383,
    "EPHEMERIS_TYPE": 0,
    "CLASSIFICATION_TYPE": "U",
    "NORAD_CAT_ID": 38341,
    "ELEMENT_SET_NO": 999,
    "REV_AT_EPOCH": 75269,
    "BSTAR": 0.00019339358,
    "MEAN_MOTION_DOT": 2.105e-5,
    "MEAN_MOTION_DDOT": 0
  },
  {
    "OBJECT_NAME": "SHIJIAN-16 (SJ-16)",
    "OBJECT_ID": "2013-057A",
    "EPOCH": "2026-04-08T14:15:41.937696",
    "MEAN_MOTION": 14.92451263,
    "ECCENTRICITY": 0.00154456,
    "INCLINATION": 74.9705,
    "RA_OF_ASC_NODE": 128.4742,
    "ARG_OF_PERICENTER": 35.1597,
    "MEAN_ANOMALY": 325.0607,
    "EPHEMERIS_TYPE": 0,
    "CLASSIFICATION_TYPE": "U",
    "NORAD_CAT_ID": 39358,
    "ELEMENT_SET_NO": 999,
    "REV_AT_EPOCH": 67596,
    "BSTAR": 0.00010894927,
    "MEAN_MOTION_DOT": 1.09e-5,
    "MEAN_MOTION_DDOT": 0
  },
  {
    "OBJECT_NAME": "SL-4 R/B",
    "OBJECT_ID": "2014-021B",
    "EPOCH": "2026-04-08T13:11:32.207712",
    "MEAN_MOTION": 15.40310982,
    "ECCENTRICITY": 0.00938601,
    "INCLINATION": 51.6057,
    "RA_OF_ASC_NODE": 191.4902,
    "ARG_OF_PERICENTER": 211.9999,
    "MEAN_ANOMALY": 147.5265,
    "EPHEMERIS_TYPE": 0,
    "CLASSIFICATION_TYPE": "U",
    "NORAD_CAT_ID": 39679,
    "ELEMENT_SET_NO": 999,
    "REV_AT_EPOCH": 66087,
    "BSTAR": 0.00029181538,
    "MEAN_MOTION_DOT": 0.00013542,
    "MEAN_MOTION_DDOT": 0
  },
  {
    "OBJECT_NAME": "ALOS-2",
    "OBJECT_ID": "2014-029A",
    "EPOCH": "2026-04-07T12:43:48.631008",
    "MEAN_MOTION": 14.79459327,
    "ECCENTRICITY": 0.0001762,
    "INCLINATION": 97.9196,
    "RA_OF_ASC_NODE": 195.7083,
    "ARG_OF_PERICENTER": 93.2091,
    "MEAN_ANOMALY": 266.9322,
    "EPHEMERIS_TYPE": 0,
    "CLASSIFICATION_TYPE": "U",
    "NORAD_CAT_ID": 39766,
    "ELEMENT_SET_NO": 999,
    "REV_AT_EPOCH": 64113,
    "BSTAR": 1.4196e-5,
    "MEAN_MOTION_DOT": 5.5e-7,
    "MEAN_MOTION_DDOT": 0
  },
  {
    "OBJECT_NAME": "YAOGAN-29",
    "OBJECT_ID": "2015-069A",
    "EPOCH": "2026-04-08T14:48:14.461056",
    "MEAN_MOTION": 14.83028781,
    "ECCENTRICITY": 3.696e-5,
    "INCLINATION": 98.0098,
    "RA_OF_ASC_NODE": 127.1209,
    "ARG_OF_PERICENTER": 174.7245,
    "MEAN_ANOMALY": 185.3972,
    "EPHEMERIS_TYPE": 0,
    "CLASSIFICATION_TYPE": "U",
    "NORAD_CAT_ID": 41038,
    "ELEMENT_SET_NO": 999,
    "REV_AT_EPOCH": 56031,
    "BSTAR": 2.7791092e-5,
    "MEAN_MOTION_DOT": 1.72e-6,
    "MEAN_MOTION_DDOT": 0
  },
  {
    "OBJECT_NAME": "ASTRO-H (HITOMI)",
    "OBJECT_ID": "2016-012A",
    "EPOCH": "2026-04-08T13:50:22.114176",
    "MEAN_MOTION": 15.10202973,
    "ECCENTRICITY": 0.00096802,
    "INCLINATION": 30.9983,
    "RA_OF_ASC_NODE": 163.6499,
    "ARG_OF_PERICENTER": 271.9943,
    "MEAN_ANOMALY": 87.9586,
    "EPHEMERIS_TYPE": 0,
    "CLASSIFICATION_TYPE": "U",
    "NORAD_CAT_ID": 41337,
    "ELEMENT_SET_NO": 999,
    "REV_AT_EPOCH": 55675,
    "BSTAR": 0.00013650167,
    "MEAN_MOTION_DOT": 2.383e-5,
    "MEAN_MOTION_DDOT": 0
  },
  {
    "OBJECT_NAME": "HXMT (HUIYAN)",
    "OBJECT_ID": "2017-034A",
    "EPOCH": "2026-04-08T15:46:39.495648",
    "MEAN_MOTION": 15.17876787,
    "ECCENTRICITY": 0.00304241,
    "INCLINATION": 43.0138,
    "RA_OF_ASC_NODE": 210.0141,
    "ARG_OF_PERICENTER": 63.0707,
    "MEAN_ANOMALY": 297.3244,
    "EPHEMERIS_TYPE": 0,
    "CLASSIFICATION_TYPE": "U",
    "NORAD_CAT_ID": 42758,
    "ELEMENT_SET_NO": 999,
    "REV_AT_EPOCH": 48709,
    "BSTAR": 0.00025998128,
    "MEAN_MOTION_DOT": 5.185e-5,
    "MEAN_MOTION_DDOT": 0
  },
  {
    "OBJECT_NAME": "SAOCOM 1A",
    "OBJECT_ID": "2018-076A",
    "EPOCH": "2026-04-08T14:24:12.903840",
    "MEAN_MOTION": 14.82196036,
    "ECCENTRICITY": 0.00013992,
    "INCLINATION": 97.8904,
    "RA_OF_ASC_NODE": 286.3503,
    "ARG_OF_PERICENTER": 79.7744,
    "MEAN_ANOMALY": 280.3627,
    "EPHEMERIS_TYPE": 0,
    "CLASSIFICATION_TYPE": "U",
    "NORAD_CAT_ID": 43641,
    "ELEMENT_SET_NO": 999,
    "REV_AT_EPOCH": 40579,
    "BSTAR": 6.4077869e-5,
    "MEAN_MOTION_DOT": 4.58e-6,
    "MEAN_MOTION_DDOT": 0
  },
  {
    "OBJECT_NAME": "H-2A R/B",
    "OBJECT_ID": "2018-084L",
    "EPOCH": "2026-04-08T13:59:20.032800",
    "MEAN_MOTION": 15.42701989,
    "ECCENTRICITY": 0.00231457,
    "INCLINATION": 98.8684,
    "RA_OF_ASC_NODE": 322.3852,
    "ARG_OF_PERICENTER": 279.5146,
    "MEAN_ANOMALY": 80.3481,
    "EPHEMERIS_TYPE": 0,
    "CLASSIFICATION_TYPE": "U",
    "NORAD_CAT_ID": 43682,
    "ELEMENT_SET_NO": 999,
    "REV_AT_EPOCH": 41038,
    "BSTAR": 0.00039851323,
    "MEAN_MOTION_DOT": 0.0001746,
    "MEAN_MOTION_DDOT": 0
  },
  {
    "OBJECT_NAME": "SAOCOM 1B",
    "OBJECT_ID": "2020-059A",
    "EPOCH": "2026-04-08T15:09:14.992992",
    "MEAN_MOTION": 14.82156371,
    "ECCENTRICITY": 0.00014706,
    "INCLINATION": 97.8892,
    "RA_OF_ASC_NODE": 285.4773,
    "ARG_OF_PERICENTER": 84.8482,
    "MEAN_ANOMALY": 275.2899,
    "EPHEMERIS_TYPE": 0,
    "CLASSIFICATION_TYPE": "U",
    "NORAD_CAT_ID": 46265,
    "ELEMENT_SET_NO": 999,
    "REV_AT_EPOCH": 30318,
    "BSTAR": 6.7457735e-5,
    "MEAN_MOTION_DOT": 4.85e-6,
    "MEAN_MOTION_DDOT": 0
  },
  {
    "OBJECT_NAME": "CSS (TIANHE)",
    "OBJECT_ID": "2021-035A",
    "EPOCH": "2026-04-08T12:30:42.187968",
    "MEAN_MOTION": 15.62120796,
    "ECCENTRICITY": 0.00042147,
    "INCLINATION": 41.4683,
    "RA_OF_ASC_NODE": 26.4426,
    "ARG_OF_PERICENTER": 161.2756,
    "MEAN_ANOMALY": 198.8239,
    "EPHEMERIS_TYPE": 0,
    "CLASSIFICATION_TYPE": "U",
    "NORAD_CAT_ID": 48274,
    "ELEMENT_SET_NO": 999,
    "REV_AT_EPOCH": 28227,
    "BSTAR": 0.00026634943,
    "MEAN_MOTION_DOT": 0.00023778,
    "MEAN_MOTION_DDOT": 0
  }
]
